CCSDS_OMM_VERS,COMMENT,CREATION_DATE,ORIGINATOR,OBJECT_NAME,OBJECT_ID,CENTER_NAME,REF_FRAME,TIME_SYSTEM,MEAN_ELEMENT_THEORY,EPOCH,MEAN_MOTION,ECCENTRICITY,INCLINATION,RA_OF_ASC_NODE,ARG_OF_PERICENTER,MEAN_ANOMALY,EPHEMERIS_TYPE,CLASSIFICATION_TYPE,NORAD_CAT_ID,ELEMENT_SET_NO,REV_AT_EPOCH,BSTAR,MEAN_MOTION_DOT,MEAN_MOTION_DDOT,SEMIMAJOR_AXIS,PERIOD,APOAPSIS,PERIAPSIS,OBJECT_TYPE,RCS_SIZE,COUNTRY_CODE,LAUNCH_DATE,SITE,DECAY_DATE,DECAYED,FILE,GP_ID,TLE_LINE0,TLE_LINE1,TLE_LINE2,height_km,latitude,longitude,velocity_kms,id
2.0,GENERATED VIA SPACE-TRACK.ORG API,2022-11-30T06:46:14,18 SPCS,STARLINK-5239,2022-141AC,EARTH,TEME,UTC,SGP4,2022-11-30T06:00:00.999648,15.732252,0.0003917,53.2172,339.5691,1.7922,265.646,0,U,54183,999,548,-1.1298e-05,-2.212e-05,0.0,6727.823,91.532,352.324,347.053,PAYLOAD,LARGE,US,2022-10-28,AFWTR,,0,3673982,219117991,0 STARLINK-5239,1 54183U 22141AC  22334.25001157 -.00002212  00000-0 -11298-4 0  9990,2 54183  53.2172 339.5691 0003917   1.7922 265.6460 15.73225200  5483,347.2707280333234,9.663582118489963,41.499872323908875,7.7040635591498186,63655b75358d5951a1c69a3a
2.0,GENERATED VIA SPACE-TRACK.ORG API,2022-11-30T14:36:14,18 SPCS,STARLINK-5228,2022-141Z,EARTH,TEME,UTC,SGP4,2022-11-30T14:00:01.999872,15.73232531,0.0004046,53.2158,337.912,0.7777,356.3096,0,U,54180,999,554,-2.8757e-05,-4.666e-05,0.0,6727.802,91.531,352.389,346.945,PAYLOAD,LARGE,US,2022-10-28,AFWTR,,0,3674937,219136253,0 STARLINK-5228,1 54180U 22141Z   22334.58335648 -.00004666  00000-0 -28757-4 0  9991,2 54180  53.2158 337.9120 0004046   0.7777 356.3096 15.73232531  5549,347.17482769180697,10.167227584017773,41.88238394014369,7.70419957583033,63655b75358d5951a1c69a65
2.0,GENERATED VIA SPACE-TRACK.ORG API,2022-11-30T17:18:05,18 SPCS,STARLINK-5244,2022-141AU,EARTH,TEME,UTC,SGP4,2022-11-30T14:00:01.999872,15.73236002,0.0004102,53.2164,337.8978,3.4118,0.807,0,U,54199,999,130,-0.00052343,-0.00073598,0.0,6727.793,91.531,352.417,346.898,PAYLOAD,LARGE,US,2022-10-28,AFWTR,,0,3675646,219178375,0 STARLINK-5244,1 54199U 22141AU  22334.58335648 -.00073598  00000-0 -52343-3 0  9998,2 54199  53.2164 337.8978 0004102   3.4118   0.8070 15.73236002  1308,354.3179656883758,36.57484783080477,150.23545129555797,7.700331518782918,63655b75358d5951a1c69b75
2.0,GENERATED VIA SPACE-TRACK.ORG API,2022-11-30T14:36:14,18 SPCS,STARLINK-5259,2022-141BE,EARTH,TEME,UTC,SGP4,2022-11-30T14:00:01.999872,15.73213146,0.0004352,53.2156,337.8803,1.9652,9.3749,0,U,54209,999,554,-8.0571e-06,-1.757e-05,0.0,6727.858,91.532,352.651,346.795,PAYLOAD,LARGE,US,2022-10-28,AFWTR,,0,3674947,219136344,0 STARLINK-5259,1 54209U 22141BE  22334.58335648 -.00001757  00000-0 -80571-5 0  9994,2 54209  53.2156 337.8803 0004352   1.9652   9.3749 15.73213146  5542,368.5128228047606,-52.83147358442665,-82.36419418239448,7.6877955201163815,63655b75358d5951a1c69b97
2.0,GENERATED VIA SPACE-TRACK.ORG API,2022-11-30T17:18:05,18 SPCS,STARLINK-5238,2022-141AH,EARTH,TEME,UTC,SGP4,2022-11-30T14:00:01.999872,15.73231371,0.0004127,53.2146,337.9009,4.1083,355.9034,0,U,54188,999,130,-0.00036285,-0.00051334,0.0,6727.806,91.531,352.447,346.894,PAYLOAD,LARGE,US,2022-10-28,AFWTR,,0,3675646,219177169,0 STARLINK-5238,1 54188U 22141AH  22334.58335648 -.00051334  00000-0 -36285-3 0  9997,2 54188  53.2146 337.9009 0004127   4.1083 355.9034 15.73231371  1306,354.68905368540436,39.32333901353317,146.19630710887375,7.700518067507609,63655b75358d5951a1c69b9b
2.0,GENERATED VIA SPACE-TRACK.ORG API,2022-11-30T17:18:05,18 SPCS,STARLINK-5290,2022-141A,EARTH,TEME,UTC,SGP4,2022-11-30T14:00:01.999872,15.34364906,0.0001641,53.2172,340.0961,34.4353,314.7979,0,U,54157,999,130,-0.03909,-0.01197874,0.0,6840.945,93.85,463.932,461.687,PAYLOAD,LARGE,US,2022-10-28,AFWTR,,0,3675646,219177692,0 STARLINK-5290,1 54157U 22141A   22334.58335648 -.01197874  00000-0 -39090-1 0  9999,2 54157  53.2172 340.0961 0001641  34.4353 314.7979 15.34364906  1306,469.8326617035864,52.93664959651773,106.09121037909954,7.637999615158289,63655b75358d5951a1c69baa
2.0,GENERATED VIA SPACE-TRACK.ORG API,2022-11-30T14:36:14,18 SPCS,STARLINK-5242,2022-141S,EARTH,TEME,UTC,SGP4,2022-11-30T14:00:01.999872,15.73236195,0.0004178,53.216,337.9301,359.3896,349.3813,0,U,54173,999,531,-0.00075154,-0.00105017,0.0,6727.792,91.531,352.468,346.846,PAYLOAD,LARGE,US,2022-10-28,AFWTR,,0,3674935,219135718,0 STARLINK-5242,1 54173U 22141S   22334.58335648 -.00105017  00000-0 -75154-3 0  9997,2 54173  53.2160 337.9301 0004178 359.3896 349.3813 15.73236195  5310,366.07175029477185,-44.43365619448052,-114.21848138238195,7.688670936107065,63655b75358d5951a1c69bb1
2.0,GENERATED VIA SPACE-TRACK.ORG API,2022-11-30T17:18:05,18 SPCS,STARLINK-5182,2022-141AJ,EARTH,TEME,UTC,SGP4,2022-11-30T14:00:01.999872,15.7320255,0.0004317,53.2159,337.911,3.2466,355.0242,0,U,54189,999,130,0.00033611,0.00046837,0.0,6727.888,91.533,352.657,346.848,PAYLOAD,LARGE,US,2022-10-28,AFWTR,,0,3675646,219177696,0 STARLINK-5182,1 54189U 22141AJ  22334.58335648  .00046837  00000-0  33611-3 0  9998,2 54189  53.2159 337.9110 0004317   3.2466 355.0242 15.73202550  1309,354.9519255997584,40.38556385333096,144.49513463119968,7.700457336044832,63655b75358d5951a1c69bb2
2.0,GENERATED VIA SPACE-TRACK.ORG API,2022-11-30T17:18:05,18 SPCS,STARLINK-5281,2022-141AK,EARTH,TEME,UTC,SGP4,2022-11-30T14:00:01.999872,15.73205861,0.0003945,53.2157,337.9023,2.5587,358.6705,0,U,54190,999,131,-5.8573e-05,-8.842e-05,0.0,6727.878,91.533,352.398,347.089,PAYLOAD,LARGE,US,2022-10-28,AFWTR,,0,3675646,219177867,0 STARLINK-5281,1 54190U 22141AK  22334.58335648 -.00008842  00000-0 -58573-4 0  9991,2 54190  53.2157 337.9023 0003945   2.5587 358.6705 15.73205861  1316,354.60485908505143,38.54596133847577,147.39385800105867,7.700459705751028,63655b75358d5951a1c69bb6
2.0,GENERATED VIA SPACE-TRACK.ORG API,2022-11-30T17:18:05,18 SPCS,STARLINK-5240,2022-141AG,EARTH,TEME,UTC,SGP4,2022-11-30T14:00:01.999872,15.73195323,0.0003822,53.2163,337.9186,7.8989,347.3625,0,U,54187,999,130,0.00031447,0.00043747,0.0,6727.909,91.533,352.345,347.202,PAYLOAD,LARGE,US,2022-10-28,AFWTR,,0,3675646,219178034,0 STARLINK-5240,1 54187U 22141AG  22334.58335648  .00043747  00000-0  31447-3 0  9998,2 54187  53.2163 337.9186 0003822   7.8989 347.3625 15.73195323  1303,354.89345357335424,42.247405614074516,141.26144584601565,7.70096359497575,63655b75358d5951a1c69bbb
2.0,GENERATED VIA SPACE-TRACK.ORG API,2022-11-30T17:18:05,18 SPCS,STARLINK-5248,2022-141T,EARTH,TEME,UTC,SGP4,2022-11-30T14:00:01.999872,15.73182715,0.0002956,53.2151,337.1372,16.4896,358.9378,0,U,54174,999,130,0.00033654,0.00046846,0.0,6727.944,91.534,351.798,347.821,PAYLOAD,LARGE,US,2022-10-28,AFWTR,,0,3675646,219177865,0 STARLINK-5248,1 54174U 22141T   22334.58335648  .00046846  00000-0  33654-3 0  9999,2 54174  53.2151 337.1372 0002956  16.4896 358.9378 15.73182715  1309,352.48126870072156,28.901768315060718,158.7385197889373,7.700856388727214,63655b75358d5951a1c69bbf
2.0,GENERATED VIA SPACE-TRACK.ORG API,2022-11-30T17:18:05,18 SPCS,STARLINK-5161,2022-141G,EARTH,TEME,UTC,SGP4,2022-11-30T14:00:01.999872,15.73201637,0.0004281,53.2162,337.9343,1.8269,345.6767,0,U,54163,999,130,3.4906e-05,4.279e-05,0.0,6727.891,91.533,352.636,346.875,PAYLOAD,LARGE,US,2022-10-28,AFWTR,,0,3675646,219178031,0 STARLINK-5161,1 54163U 22141G   22334.58335648  .00004279  00000-0  34906-4 0  9993,2 54163  53.2162 337.9343 0004281   1.8269 345.6767 15.73201637  1300,355.90279915348583,46.49487300441825,132.18714741768358,7.7007966510351,63655b75358d5951a1c69bc5
2.0,GENERATED VIA SPACE-TRACK.ORG API,2022-11-30T17:18:05,18 SPCS,STARLINK-5235,2022-141AE,EARTH,TEME,UTC,SGP4,2022-11-30T14:00:01.999872,15.73241211,0.0004327,53.216,337.9172,2.1454,353.7347,0,U,54185,999,130,-0.0006013,-0.00084373,0.0,6727.778,91.531,352.554,346.732,PAYLOAD,LARGE,US,2022-10-28,AFWTR,,0,3675646,219177339,0 STARLINK-5235,1 54185U 22141AE  22334.58335648 -.00084373  00000-0 -60130-3 0  9999,2 54185  53.2160 337.9172 0004327   2.1454 353.7347 15.73241211  1309,355.2374629775313,42.05228332970723,141.63609196796526,7.7005131358577765,63655b75358d5951a1c69c11
2.0,GENERATED VIA SPACE-TRACK.ORG API,2022-11-30T14:36:14,18 SPCS,STARLINK-5262,2022-141BC,EARTH,TEME,UTC,SGP4,2022-11-30T14:00:01.999872,15.73207009,0.0003893,53.216,337.8853,4.9982,4.6319,0,U,54207,999,554,-0.00048781,-0.00068583,0.0,6727.875,91.533,352.359,347.121,PAYLOAD,LARGE,US,2022-10-28,AFWTR,,0,3674947,219136343,0 STARLINK-5262,1 54207U 22141BC  22334.58335648 -.00068583  00000-0 -48781-3 0  9997,2 54207  53.2160 337.8853 0003893   4.9982   4.6319 15.73207009  5540,353.76898311476,33.050141142475645,154.7892620246221,7.700243003159944,63655b76358d5951a1c69c14
2.0,GENERATED VIA SPACE-TRACK.ORG API,2022-11-30T17:18:05,18 SPCS,STARLINK-5164,2022-141X,EARTH,TEME,UTC,SGP4,2022-11-30T14:00:01.999872,15.73219619,0.0004332,53.2158,337.9177,4.9971,349.0636,0,U,54178,999,130,-9.4639e-05,-0.00013904,0.0,6727.839,91.532,352.619,346.79,PAYLOAD,LARGE,US,2022-10-28,AFWTR,,0,3675646,219178204,0 STARLINK-5164,1 54178U 22141X   22334.58335648 -.00013904  00000-0 -94639-4 0  9995,2 54178  53.2158 337.9177 0004332   4.9971 349.0636 15.73219619  1309,355.26740057855477,43.11045424539285,139.6471677855835,7.700722652701329,63655b76358d5951a1c69c8b
2.0,GENERATED VIA SPACE-TRACK.ORG API,2022-11-30T17:18:05,18 SPCS,STARLINK-5241,2022-141AZ,EARTH,TEME,UTC,SGP4,2022-11-30T14:00:01.999872,15.73219539,0.0003901,53.2159,337.8833,6.956,3.2315,0,U,54204,999,130,-0.00020461,-0.00029277,0.0,6727.839,91.532,352.329,347.08,PAYLOAD,LARGE,US,2022-10-28,AFWTR,,0,3675646,219177171,0 STARLINK-5241,1 54204U 22141AZ  22334.58335648 -.00029277  00000-0 -20461-3 0  9996,2 54204  53.2159 337.8833 0003901   6.9560   3.2315 15.73219539  1309,353.58625082761955,32.6541889909824,155.26307152725946,7.700329104937703,63655b76358d5951a1c69cac
